SKYKRAFT-1A             
1 55054U 23001AX  26068.71064616  .00008177  00000+0  30069-3 0  9991
2 55054  97.3349 127.6290 0011277 121.5092 238.7251 15.28083228176529
STARLINK-30955          
1 58417U 23180R   26068.31578766  .00000657  00000+0  33361-4 0  9991
2 58417  43.0014  54.2327 0000154 229.9760 130.1078 15.27581809127575
